APRIZESAT 2             
1 28366U 04025A   22316.19466898  .00000228  00000+0  86131-4 0  9995
2 28366  98.1408 177.6239 0106227 250.5414 108.4272 14.36869871963039
SAUDICOMSAT 1           
1 28369U 04025D   22316.16244201  .00000534  00000+0  14016-3 0  9999
2 28369  98.4617 278.8768 0034658  82.8413 277.6721 14.52909119973353
SAUDICOMSAT 2           
1 28370U 04025E   22316.51244290  .00000438  00000+0  12894-3 0  9993
2 28370  98.5535 278.6153 0056371 273.4701  86.0044 14.47803529970073
APRIZESAT 1             
1 28372U 04025G   22316.15307232  .00000329  00000+0  96177-4 0  9997
2 28372  98.5145 278.3280 0046052 184.6607 175.4164 14.49887703971551
NANOSAT-1               
1 28493U 04049B   22315.87491626  .00001094  00000+0  17342-3 0  9992
2 28493  98.1185  56.8147 0004653 166.8548 193.2782 14.74225922961597
SAUDICOMSAT 7           
1 31119U 07012C   22315.82642307  .00000939  00000+0  19153-3 0  9992
2 31119  98.2014 260.4138 0059482 351.0730   8.9408 14.62252316830240
SAUDICOMSAT 6           
1 31121U 07012E   22316.10032480  .00000631  00000+0  13901-3 0  9996
2 31121  98.2408 255.9497 0077413  93.3350 267.6709 14.59013340828541
SAUDICOMSAT 5           
1 31124U 07012H   22315.85581266  .00000913  00000+0  18068-3 0  9993
2 31124  98.1708 261.8957 0049988 295.3857  64.2174 14.63996529831157
SAUDICOMSAT 3           
1 31125U 07012J   22315.86701059  .00000906  00000+0  17300-3 0  9999
2 31125  98.1367 263.2303 0041560 238.5838 121.1299 14.65844460832101
SAUDICOMSAT 4           
1 31127U 07012L   22315.84418668  .00000868  00000+0  18209-3 0  9996
2 31127  98.2236 258.8487 0068494  40.0713 320.5511 14.60751907829392
APRIZESAT 4             
1 35684U 09041D   22315.78375321  .00000741  00000+0  10446-3 0  9998
2 35684  98.3053 334.4576 0045524 238.2772 121.3997 14.79827939716857
APRIZESAT 3             
1 35686U 09041F   22315.82999720  .00001320  00000+0  14260-3 0  9992
2 35686  98.1035  45.7625 0072857  65.1607 295.7163 14.88236034720527
AISSAT 1                
1 36797U 10035C   22316.12897015  .00001761  00000+0  20063-3 0  9996
2 36797  98.2355 145.5802 0011910  53.9540 306.2776 14.87504750668528
S-NET D                 
1 43186U 18014G   22315.70126366  .00002489  00000+0  21255-3 0  9990
2 43186  97.6482 218.5638 0010932 151.4078 208.7746 14.98537063260967
S-NET B                 
1 43187U 18014H   22316.03548125  .00002512  00000+0  21449-3 0  9991
2 43187  97.6475 218.8361 0010932 150.6679 209.5160 14.98535702261018
S-NET A                 
1 43188U 18014J   22315.70191979  .00002436  00000+0  20815-3 0  9997
2 43188  97.6481 218.5811 0010906 151.6229 208.5589 14.98534284260967
S-NET C                 
1 43189U 18014K   22315.70292018  .00002314  00000+0  19801-3 0  9992
2 43189  97.6473 218.4966 0010856 151.7671 208.4142 14.98529468259516
SALSAT                  
1 46495U 20068K   22315.84847180  .00003772  00000+0  26742-3 0  9999
2 46495  97.7454 257.3489 0017453 133.5494 226.7185 15.05280522116350
